{
  "type": "FeatureCollection",
  "features": [
    {
      "type": "Feature",
      "properties": {
        "norad_id": 29798,
        "name": "FENGYUN 1C DEB",
        "group": "fengyun-1c-debris",
        "lat": -80.28709872620276,
        "lon": 137.37268173332177,
        "alt_km": 836.8230033140544,
        "timestamp": "2025-12-26T03:50:12.364548+00:00",
        "meta_object_name": "FENGYUN 1C DEB",
        "meta_object_id": "1999-025CQ",
        "meta_epoch": "2025-12-25T18:32:17.767104",
        "meta_mean_motion": 13.99626035,
        "meta_eccentricity": 0.0112139,
        "meta_inclination": 99.2953,
        "meta_ra_of_asc_node": 63.8777,
        "meta_arg_of_pericenter": 236.9862,
        "meta_mean_anomaly": 243.9603,
        "meta_ephemeris_type": 0,
        "meta_classification_type": "U",
        "meta_norad_cat_id": 29798,
        "meta_element_set_no": 999,
        "meta_rev_at_epoch": 96107,
        "meta_bstar": 0.0015199,
        "meta_mean_motion_dot": 2.298e-05,
        "meta_mean_motion_ddot": 0,
        "tle_line1": "1 29798U 99025CQ  25359.77242786  .00002298  00000+0  15199-2 0  9994",
        "tle_line2": "2 29798  99.2953  63.8777 0112139 236.9862 243.9603 13.99626035961079"
      },
      "geometry": {
        "type": "Point",
        "coordinates": [
          137.37268173332177,
          -80.28709872620276
        ]
      }
    },
    {
      "type": "Feature",
      "properties": {
        "norad_id": 29800,
        "name": "FENGYUN 1C DEB",
        "group": "fengyun-1c-debris",
        "lat": 29.475594031019657,
        "lon": 15.766017456585478,
        "alt_km": 988.3998203170513,
        "timestamp": "2025-12-26T03:50:12.364558+00:00",
        "meta_object_name": "FENGYUN 1C DEB",
        "meta_object_id": "1999-025CS",
        "meta_epoch": "2025-12-25T12:58:14.687328",
        "meta_mean_motion": 13.98631422,
        "meta_eccentricity": 0.0133875,
        "meta_inclination": 98.291,
        "meta_ra_of_asc_node": 19.933,
        "meta_arg_of_pericenter": 191.628,
        "meta_mean_anomaly": 321.744,
        "meta_ephemeris_type": 0,
        "meta_classification_type": "U",
        "meta_norad_cat_id": 29800,
        "meta_element_set_no": 999,
        "meta_rev_at_epoch": 95755,
        "meta_bstar": 0.0014898,
        "meta_mean_motion_dot": 2.271e-05,
        "meta_mean_motion_ddot": 0,
        "tle_line1": "1 29800U 99025CS  25359.54044777  .00002271  00000+0  14898-2 0  9999",
        "tle_line2": "2 29800  98.2910  19.9330 0133875 191.6280 321.7440 13.98631422957550"
      },
      "geometry": {
        "type": "Point",
        "coordinates": [
          15.766017456585478,
          29.475594031019657
        ]
      }
    },
    {
      "type": "Feature",
      "properties": {
        "norad_id": 29801,
        "name": "FENGYUN 1C DEB",
        "group": "fengyun-1c-debris",
        "lat": -42.730476431652335,
        "lon": -90.32226633044476,
        "alt_km": 777.0084861770929,
        "timestamp": "2025-12-26T03:50:12.364568+00:00",
        "meta_object_name": "FENGYUN 1C DEB",
        "meta_object_id": "1999-025CT",
        "meta_epoch": "2025-12-25T16:35:24.197856",
        "meta_mean_motion": 14.35910873,
        "meta_eccentricity": 0.0102941,
        "meta_inclination": 98.7951,
        "meta_ra_of_asc_node": 260.9773,
        "meta_arg_of_pericenter": 228.7858,
        "meta_mean_anomaly": 185.7528,
        "meta_ephemeris_type": 0,
        "meta_classification_type": "U",
        "meta_norad_cat_id": 29801,
        "meta_element_set_no": 999,
        "meta_rev_at_epoch": 99127,
        "meta_bstar": 0.00017227,
        "meta_mean_motion_dot": 4.82e-06,
        "meta_mean_motion_ddot": 0,
        "tle_line1": "1 29801U 99025CT  25359.69125229  .00000482  00000+0  17227-3 0  9990",
        "tle_line2": "2 29801  98.7951 260.9773 0102941 228.7858 185.7528 14.35910873991277"
      },
      "geometry": {
        "type": "Point",
        "coordinates": [
          -90.32226633044476,
          -42.730476431652335
        ]
      }
    },
    {
      "type": "Feature",
      "properties": {
        "norad_id": 29802,
        "name": "FENGYUN 1C DEB",
        "group": "fengyun-1c-debris",
        "lat": 39.40629053813125,
        "lon": -62.98319943549313,
        "alt_km": 705.8164011315821,
        "timestamp": "2025-12-26T03:50:12.364578+00:00",
        "meta_object_name": "FENGYUN 1C DEB",
        "meta_object_id": "1999-025CU",
        "meta_epoch": "2025-12-25T06:09:17.450208",
        "meta_mean_motion": 14.62634509,
        "meta_eccentricity": 0.0037452,
        "meta_inclination": 98.6193,
        "meta_ra_of_asc_node": 108.9153,
        "meta_arg_of_pericenter": 299.3166,
        "meta_mean_anomaly": 126.6642,
        "meta_ephemeris_type": 0,
        "meta_classification_type": "U",
        "meta_norad_cat_id": 29802,
        "meta_element_set_no": 999,
        "meta_rev_at_epoch": 98656,
        "meta_bstar": 0.0029616,
        "meta_mean_motion_dot": 0.00015187,
        "meta_mean_motion_ddot": 0,
        "tle_line1": "1 29802U 99025CU  25359.25645197  .00015187  00000+0  29616-2 0  9996",
        "tle_line2": "2 29802  98.6193 108.9153 0037452 299.3166 126.6642 14.62634509986564"
      },
      "geometry": {
        "type": "Point",
        "coordinates": [
          -62.98319943549313,
          39.40629053813125
        ]
      }
    },
    {
      "type": "Feature",
      "properties": {
        "norad_id": 29804,
        "name": "FENGYUN 1C DEB",
        "group": "fengyun-1c-debris",
        "lat": -3.3648385589573206,
        "lon": -172.56122891529543,
        "alt_km": 870.0884049699325,
        "timestamp": "2025-12-26T03:50:12.364588+00:00",
        "meta_object_name": "FENGYUN 1C DEB",
        "meta_object_id": "1999-025CW",
        "meta_epoch": "2025-12-25T17:00:21.862368",
        "meta_mean_motion": 14.04323413,
        "meta_eccentricity": 0.0097022,
        "meta_inclination": 98.8048,
        "meta_ra_of_asc_node": 7.5234,
        "meta_arg_of_pericenter": 265.2106,
        "meta_mean_anomaly": 158.9664,
        "meta_ephemeris_type": 0,
        "meta_classification_type": "U",
        "meta_norad_cat_id": 29804,
        "meta_element_set_no": 999,
        "meta_rev_at_epoch": 97076,
        "meta_bstar": -2.6787e-05,
        "meta_mean_motion_dot": -8.8e-07,
        "meta_mean_motion_ddot": 0,
        "tle_line1": "1 29804U 99025CW  25359.70858637 -.00000088  00000+0 -26787-4 0  9997",
        "tle_line2": "2 29804  98.8048   7.5234 0097022 265.2106 158.9664 14.04323413970768"
      },
      "geometry": {
        "type": "Point",
        "coordinates": [
          -172.56122891529543,
          -3.3648385589573206
        ]
      }
    },
    {
      "type": "Feature",
      "properties": {
        "norad_id": 29805,
        "name": "FENGYUN 1C DEB",
        "group": "fengyun-1c-debris",
        "lat": -76.7193693571735,
        "lon": -173.6420303580446,
        "alt_km": 938.2618571795201,
        "timestamp": "2025-12-26T03:50:12.364599+00:00",
        "meta_object_name": "FENGYUN 1C DEB",
        "meta_object_id": "1999-025CX",
        "meta_epoch": "2025-12-22T09:21:33.026976",
        "meta_mean_motion": 13.72660525,
        "meta_eccentricity": 0.01883468,
        "meta_inclination": 99.4536,
        "meta_ra_of_asc_node": 47.5382,
        "meta_arg_of_pericenter": 204.6188,
        "meta_mean_anomaly": 154.588,
        "meta_ephemeris_type": 0,
        "meta_classification_type": "U",
        "meta_norad_cat_id": 29805,
        "meta_element_set_no": 999,
        "meta_rev_at_epoch": 94835,
        "meta_bstar": 0.00016344227,
        "meta_mean_motion_dot": 1.26e-06,
        "meta_mean_motion_ddot": 0,
        "tle_line1": "1 29805U 99025CX  25356.38996559  .00000126  00000+0  16344-3 0  9993",
        "tle_line2": "2 29805  99.4536  47.5382 0188346 204.6188 154.5880 13.72660525948357"
      },
      "geometry": {
        "type": "Point",
        "coordinates": [
          -173.6420303580446,
          -76.7193693571735
        ]
      }
    },
    {
      "type": "Feature",
      "properties": {
        "norad_id": 29806,
        "name": "FENGYUN 1C DEB",
        "group": "fengyun-1c-debris",
        "lat": -23.53035790880041,
        "lon": -168.2605563199925,
        "alt_km": 837.8458730349139,
        "timestamp": "2025-12-26T03:50:12.364609+00:00",
        "meta_object_name": "FENGYUN 1C DEB",
        "meta_object_id": "1999-025CY",
        "meta_epoch": "2025-12-25T13:51:13.504896",
        "meta_mean_motion": 14.12030769,
        "meta_eccentricity": 0.0028003,
        "meta_inclination": 98.7123,
        "meta_ra_of_asc_node": 15.0019,
        "meta_arg_of_pericenter": 214.6575,
        "meta_mean_anomaly": 269.0923,
        "meta_ephemeris_type": 0,
        "meta_classification_type": "U",
        "meta_norad_cat_id": 29806,
        "meta_element_set_no": 999,
        "meta_rev_at_epoch": 97320,
        "meta_bstar": 0.00052829,
        "meta_mean_motion_dot": 9.28e-06,
        "meta_mean_motion_ddot": 0,
        "tle_line1": "1 29806U 99025CY  25359.57723964  .00000928  00000+0  52829-3 0  9994",
        "tle_line2": "2 29806  98.7123  15.0019 0028003 214.6575 269.0923 14.12030769973201"
      },
      "geometry": {
        "type": "Point",
        "coordinates": [
          -168.2605563199925,
          -23.53035790880041
        ]
      }
    }
  ]
}